{
    "links": {
        "self": "http://www.neowsapp.com/rest/v1/neo/54087733?api_key=iIulBulltgU6a56xZRHN4H3l9WmuAYTsLGpBGhQ2"
    },
    "id": "54087733",
    "neo_reference_id": "54087733",
    "name": "(2020 VQ2)",
    "designation": "2020 VQ2",
    "nasa_jpl_url": "http://ssd.jpl.nasa.gov/sbdb.cgi?sstr=54087733",
    "absolute_magnitude_h": 26.813,
    "estimated_diameter": {
        "kilometers": {
            "estimated_diameter_min": 0.0115333369,
            "estimated_diameter_max": 0.0257893252
        },
        "meters": {
            "estimated_diameter_min": 11.533336853,
            "estimated_diameter_max": 25.7893252106
        },
        "miles": {
            "estimated_diameter_min": 0.0071664811,
            "estimated_diameter_max": 0.0160247388
        },
        "feet": {
            "estimated_diameter_min": 37.8390328807,
            "estimated_diameter_max": 84.610649724
        }
    },
    "is_potentially_hazardous_asteroid": false,
    "close_approach_data": [
        {
            "close_approach_date": "2020-11-18",
            "close_approach_date_full": "2020-Nov-18 06:18",
            "epoch_date_close_approach": 1605680280000,
            "relative_velocity": {
                "kilometers_per_second": "10.8177071137",
                "kilometers_per_hour": "38943.7456093337",
                "miles_per_hour": "24198.129042644"
            },
            "miss_distance": {
                "astronomical": "0.0102579733",
                "lunar": "3.9903516137",
                "kilometers": "1534570.956196871",
                "miles": "953538.1760279798"
            },
            "orbiting_body": "Earth"
        }
    ],
    "orbital_data": {
        "orbit_id": "6",
        "orbit_determination_date": "2020-11-24 05:23:39",
        "first_observation_date": "2020-11-11",
        "last_observation_date": "2020-11-17",
        "data_arc_in_days": 6,
        "observations_used": 61,
        "orbit_uncertainty": "7",
        "minimum_orbit_intersection": ".0092814",
        "jupiter_tisserand_invariant": "3.774",
        "epoch_osculation": "2459000.5",
        "eccentricity": ".5262364071612141",
        "semi_major_axis": "1.890025709727476",
        "inclination": "5.180644281049235",
        "ascending_node_longitude": "231.2995380460108",
        "orbital_period": "949.0738222073194",
        "perihelion_distance": ".8954253707981654",
        "perihelion_argument": "229.5368025095813",
        "aphelion_distance": "2.884626048656787",
        "perihelion_time": "2459205.002805610921",
        "mean_anomaly": "282.4285737344366",
        "mean_motion": ".3793171738345136",
        "equinox": "J2000",
        "orbit_class": {
            "orbit_class_type": "APO",
            "orbit_class_description": "Near-Earth asteroid orbits which cross the Earth’s orbit similar to that of 1862 Apollo",
            "orbit_class_range": "a (semi-major axis) > 1.0 AU; q (perihelion) < 1.017 AU"
        }
    },
    "is_sentry_object": false
}